[{"OBJECT_NAME":"QIANFAN-69","OBJECT_ID":"2025-016Q","EPOCH":"2026-03-03T19:08:38.171328","MEAN_MOTION":13.51005157,"ECCENTRICITY":0.0017917,"INCLINATION":88.9667,"RA_OF_ASC_NODE":94.5632,"ARG_OF_PERICENTER":109.3172,"MEAN_ANOMALY":250.9918,"EPHEMERIS_TYPE":0,"CLASSIFICATION_TYPE":"U","NORAD_CAT_ID":62799,"ELEMENT_SET_NO":999,"REV_AT_EPOCH":5822,"BSTAR":0.00010481,"MEAN_MOTION_DOT":8.0e-7,"MEAN_MOTION_DDOT":0},{"OBJECT_NAME":"QIANFAN-70","OBJECT_ID":"2025-016R","EPOCH":"2026-03-03T17:45:36.671328","MEAN_MOTION":13.50996929,"ECCENTRICITY":0.0017558,"INCLINATION":88.9689,"RA_OF_ASC_NODE":94.7248,"ARG_OF_PERICENTER":100.9875,"MEAN_ANOMALY":259.3252,"EPHEMERIS_TYPE":0,"CLASSIFICATION_TYPE":"U","NORAD_CAT_ID":62800,"ELEMENT_SET_NO":999,"REV_AT_EPOCH":5817,"BSTAR":6.8294e-5,"MEAN_MOTION_DOT":5.6e-7,"MEAN_MOTION_DDOT":0},{"OBJECT_NAME":"QIANFAN-71","OBJECT_ID":"2025-016S","EPOCH":"2026-03-03T17:39:36.217440","MEAN_MOTION":13.50996438,"ECCENTRICITY":0.0017797,"INCLINATION":88.9683,"RA_OF_ASC_NODE":94.6998,"ARG_OF_PERICENTER":112.6104,"MEAN_ANOMALY":247.6932,"EPHEMERIS_TYPE":0,"CLASSIFICATION_TYPE":"U","NORAD_CAT_ID":62801,"ELEMENT_SET_NO":999,"REV_AT_EPOCH":5817,"BSTAR":7.2808e-5,"MEAN_MOTION_DOT":5.9e-7,"MEAN_MOTION_DDOT":0},{"OBJECT_NAME":"QIANFAN-72","OBJECT_ID":"2025-016T","EPOCH":"2026-03-03T18:03:18.973152","MEAN_MOTION":13.50996136,"ECCENTRICITY":0.0020977,"INCLINATION":88.9673,"RA_OF_ASC_NODE":94.7036,"ARG_OF_PERICENTER":119.405,"MEAN_ANOMALY":240.9198,"EPHEMERIS_TYPE":0,"CLASSIFICATION_TYPE":"U","NORAD_CAT_ID":62802,"ELEMENT_SET_NO":999,"REV_AT_EPOCH":5816,"BSTAR":6.3933e-5,"MEAN_MOTION_DOT":5.4e-7,"MEAN_MOTION_DDOT":0},{"OBJECT_NAME":"QIANFAN-73","OBJECT_ID":"2025-046A","EPOCH":"2026-03-03T18:41:59.558784","MEAN_MOTION":13.50997776,"ECCENTRICITY":0.0013129,"INCLINATION":88.9763,"RA_OF_ASC_NODE":311.6539,"ARG_OF_PERICENTER":249.0902,"MEAN_ANOMALY":110.8844,"EPHEMERIS_TYPE":0,"CLASSIFICATION_TYPE":"U","NORAD_CAT_ID":63159,"ELEMENT_SET_NO":999,"REV_AT_EPOCH":5835,"BSTAR":0.00026475,"MEAN_MOTION_DOT":1.83e-6,"MEAN_MOTION_DDOT":0},{"OBJECT_NAME":"QIANFAN-74","OBJECT_ID":"2025-046B","EPOCH":"2026-03-03T18:18:22.701600","MEAN_MOTION":13.5099756,"ECCENTRICITY":0.0001889,"INCLINATION":88.9763,"RA_OF_ASC_NODE":311.5444,"ARG_OF_PERICENTER":78.1199,"MEAN_ANOMALY":282.0164,"EPHEMERIS_TYPE":0,"CLASSIFICATION_TYPE":"U","NORAD_CAT_ID":63160,"ELEMENT_SET_NO":999,"REV_AT_EPOCH":5841,"BSTAR":0.00028725,"MEAN_MOTION_DOT":1.97e-6,"MEAN_MOTION_DDOT":0},{"OBJECT_NAME":"QIANFAN-75","OBJECT_ID":"2025-046C","EPOCH":"2026-03-03T17:59:51.522432","MEAN_MOTION":13.5100133,"ECCENTRICITY":0.001433,"INCLINATION":88.9765,"RA_OF_ASC_NODE":311.7805,"ARG_OF_PERICENTER":252.8771,"MEAN_ANOMALY":107.0811,"EPHEMERIS_TYPE":0,"CLASSIFICATION_TYPE":"U","NORAD_CAT_ID":63161,"ELEMENT_SET_NO":999,"REV_AT_EPOCH":5828,"BSTAR":0.0002651,"MEAN_MOTION_DOT":1.83e-6,"MEAN_MOTION_DDOT":0},{"OBJECT_NAME":"QIANFAN-76","OBJECT_ID":"2025-046D","EPOCH":"2026-03-03T17:54:35.721792","MEAN_MOTION":13.51013834,"ECCENTRICITY":0.0011881,"INCLINATION":88.9764,"RA_OF_ASC_NODE":311.7609,"ARG_OF_PERICENTER":253.554,"MEAN_ANOMALY":106.4306,"EPHEMERIS_TYPE":0,"CLASSIFICATION_TYPE":"U","NORAD_CAT_ID":63162,"ELEMENT_SET_NO":999,"REV_AT_EPOCH":5829,"BSTAR":0.00032146,"MEAN_MOTION_DOT":2.2e-6,"MEAN_MOTION_DDOT":0},{"OBJECT_NAME":"QIANFAN-77","OBJECT_ID":"2025-046E","EPOCH":"2026-03-03T17:53:37.207392","MEAN_MOTION":13.96173123,"ECCENTRICITY":0.0014269,"INCLINATION":88.976,"RA_OF_ASC_NODE":309.1024,"ARG_OF_PERICENTER":180.4984,"MEAN_ANOMALY":179.6181,"EPHEMERIS_TYPE":0,"CLASSIFICATION_TYPE":"U","NORAD_CAT_ID":63163,"ELEMENT_SET_NO":999,"REV_AT_EPOCH":5975,"BSTAR":0.00031751,"MEAN_MOTION_DOT":4.5e-6,"MEAN_MOTION_DDOT":0},{"OBJECT_NAME":"QIANFAN-78","OBJECT_ID":"2025-046F","EPOCH":"2026-03-03T18:53:50.979840","MEAN_MOTION":13.50997833,"ECCENTRICITY":0.0013202,"INCLINATION":88.9763,"RA_OF_ASC_NODE":311.6199,"ARG_OF_PERICENTER":256.1654,"MEAN_ANOMALY":103.8028,"EPHEMERIS_TYPE":0,"CLASSIFICATION_TYPE":"U","NORAD_CAT_ID":63164,"ELEMENT_SET_NO":999,"REV_AT_EPOCH":5837,"BSTAR":0.00031161,"MEAN_MOTION_DOT":2.13e-6,"MEAN_MOTION_DDOT":0},{"OBJECT_NAME":"QIANFAN-79","OBJECT_ID":"2025-046G","EPOCH":"2026-03-03T17:48:53.738496","MEAN_MOTION":13.51008021,"ECCENTRICITY":0.0013066,"INCLINATION":88.9767,"RA_OF_ASC_NODE":311.7353,"ARG_OF_PERICENTER":254.5582,"MEAN_ANOMALY":105.4126,"EPHEMERIS_TYPE":0,"CLASSIFICATION_TYPE":"U","NORAD_CAT_ID":63165,"ELEMENT_SET_NO":999,"REV_AT_EPOCH":5831,"BSTAR":0.00027754,"MEAN_MOTION_DOT":1.91e-6,"MEAN_MOTION_DDOT":0},{"OBJECT_NAME":"QIANFAN-80","OBJECT_ID":"2025-046H","EPOCH":"2026-03-03T18:12:20.625120","MEAN_MOTION":13.50997631,"ECCENTRICITY":0.0011899,"INCLINATION":88.9764,"RA_OF_ASC_NODE":311.4383,"ARG_OF_PERICENTER":259.2598,"MEAN_ANOMALY":100.7213,"EPHEMERIS_TYPE":0,"CLASSIFICATION_TYPE":"U","NORAD_CAT_ID":63166,"ELEMENT_SET_NO":999,"REV_AT_EPOCH":5847,"BSTAR":0.00027099,"MEAN_MOTION_DOT":1.87e-6,"MEAN_MOTION_DDOT":0},{"OBJECT_NAME":"QIANFAN-81","OBJECT_ID":"2025-046J","EPOCH":"2026-03-03T17:40:51.323232","MEAN_MOTION":13.50983584,"ECCENTRICITY":0.0012948,"INCLINATION":88.9764,"RA_OF_ASC_NODE":311.5084,"ARG_OF_PERICENTER":246.9758,"MEAN_ANOMALY":113.0028,"EPHEMERIS_TYPE":0,"CLASSIFICATION_TYPE":"U","NORAD_CAT_ID":63167,"ELEMENT_SET_NO":999,"REV_AT_EPOCH":5842,"BSTAR":0.00029028,"MEAN_MOTION_DOT":1.99e-6,"MEAN_MOTION_DDOT":0},{"OBJECT_NAME":"QIANFAN-82","OBJECT_ID":"2025-046K","EPOCH":"2026-03-03T18:30:10.955232","MEAN_MOTION":13.50998984,"ECCENTRICITY":0.0011014,"INCLINATION":88.9764,"RA_OF_ASC_NODE":311.5488,"ARG_OF_PERICENTER":254.858,"MEAN_ANOMALY":105.1353,"EPHEMERIS_TYPE":0,"CLASSIFICATION_TYPE":"U","NORAD_CAT_ID":63168,"ELEMENT_SET_NO":999,"REV_AT_EPOCH":5841,"BSTAR":0.000264,"MEAN_MOTION_DOT":1.82e-6,"MEAN_MOTION_DDOT":0},{"OBJECT_NAME":"QIANFAN-83","OBJECT_ID":"2025-046L","EPOCH":"2026-03-03T17:33:27.835488","MEAN_MOTION":13.62019956,"ECCENTRICITY":0.0012402,"INCLINATION":88.9764,"RA_OF_ASC_NODE":311.1702,"ARG_OF_PERICENTER":232.7277,"MEAN_ANOMALY":127.275,"EPHEMERIS_TYPE":0,"CLASSIFICATION_TYPE":"U","NORAD_CAT_ID":63169,"ELEMENT_SET_NO":999,"REV_AT_EPOCH":5862,"BSTAR":0.00034365,"MEAN_MOTION_DOT":2.77e-6,"MEAN_MOTION_DDOT":0},{"OBJECT_NAME":"QIANFAN-84","OBJECT_ID":"2025-046M","EPOCH":"2026-03-03T19:10:10.786080","MEAN_MOTION":13.50960858,"ECCENTRICITY":0.0014036,"INCLINATION":88.9761,"RA_OF_ASC_NODE":311.678,"ARG_OF_PERICENTER":250.8815,"MEAN_ANOMALY":109.0816,"EPHEMERIS_TYPE":0,"CLASSIFICATION_TYPE":"U","NORAD_CAT_ID":63170,"ELEMENT_SET_NO":999,"REV_AT_EPOCH":5834,"BSTAR":-0.00013051,"MEAN_MOTION_DOT":-7.2e-7,"MEAN_MOTION_DDOT":0},{"OBJECT_NAME":"QIANFAN-85","OBJECT_ID":"2025-046N","EPOCH":"2026-03-03T19:05:42.592704","MEAN_MOTION":13.51001751,"ECCENTRICITY":0.001143,"INCLINATION":88.9764,"RA_OF_ASC_NODE":311.5502,"ARG_OF_PERICENTER":253.4857,"MEAN_ANOMALY":106.5038,"EPHEMERIS_TYPE":0,"CLASSIFICATION_TYPE":"U","NORAD_CAT_ID":63171,"ELEMENT_SET_NO":999,"REV_AT_EPOCH":5841,"BSTAR":0.00030157,"MEAN_MOTION_DOT":2.07e-6,"MEAN_MOTION_DDOT":0}]
