QIANFAN-69              
1 62799U 25016Q   26062.79766402  .00000080  00000+0  10481-3 0  9998
2 62799  88.9667  94.5632 0017917 109.3172 250.9918 13.51005157 58225
QIANFAN-70              
1 62800U 25016R   26062.74000777  .00000056  00000+0  68294-4 0  9991
2 62800  88.9689  94.7248 0017558 100.9875 259.3252 13.50996929 58178
QIANFAN-71              
1 62801U 25016S   26062.73583585  .00000059  00000+0  72808-4 0  9993
2 62801  88.9683  94.6998 0017797 112.6104 247.6932 13.50996438 58174
QIANFAN-72              
1 62802U 25016T   26062.75230293  .00000054  00000+0  63933-4 0  9995
2 62802  88.9673  94.7036 0020977 119.4050 240.9198 13.50996136 58161
QIANFAN-73              
1 63159U 25046A   26062.77916156  .00000183  00000+0  26475-3 0  9997
2 63159  88.9763 311.6539 0013129 249.0902 110.8844 13.50997776 58358
QIANFAN-74              
1 63160U 25046B   26062.76276275  .00000197  00000+0  28725-3 0  9994
2 63160  88.9763 311.5444 0001889  78.1199 282.0164 13.50997560 58418
QIANFAN-75              
1 63161U 25046C   26062.74990188  .00000183  00000+0  26510-3 0  9994
2 63161  88.9765 311.7805 0014330 252.8771 107.0811 13.51001330 58288
QIANFAN-76              
1 63162U 25046D   26062.74624678  .00000220  00000+0  32146-3 0  9997
2 63162  88.9764 311.7609 0011881 253.5540 106.4306 13.51013834 58295
QIANFAN-77              
1 63163U 25046E   26062.74556953  .00000450  00000+0  31751-3 0  9994
2 63163  88.9760 309.1024 0014269 180.4984 179.6181 13.96173123 59759
QIANFAN-78              
1 63164U 25046F   26062.78739560  .00000213  00000+0  31161-3 0  9998
2 63164  88.9763 311.6199 0013202 256.1654 103.8028 13.50997833 58373
QIANFAN-79              
1 63165U 25046G   26062.74228864  .00000191  00000+0  27754-3 0  9993
2 63165  88.9767 311.7353 0013066 254.5582 105.4126 13.51008021 58315
QIANFAN-80              
1 63166U 25046H   26062.75857205  .00000187  00000+0  27099-3 0  9999
2 63166  88.9764 311.4383 0011899 259.2598 100.7213 13.50997631 58479
QIANFAN-81              
1 63167U 25046J   26062.73670513  .00000199  00000+0  29028-3 0  9990
2 63167  88.9764 311.5084 0012948 246.9758 113.0028 13.50983584 58424
QIANFAN-82              
1 63168U 25046K   26062.77096013  .00000182  00000+0  26400-3 0  9995
2 63168  88.9764 311.5488 0011014 254.8580 105.1353 13.50998984 58419
QIANFAN-83              
1 63169U 25046L   26062.73157217  .00000277  00000+0  34365-3 0  9990
2 63169  88.9764 311.1702 0012402 232.7277 127.2750 13.62019956 58620
QIANFAN-84              
1 63170U 25046M   26062.79873595 -.00000072  00000+0 -13051-3 0  9996
2 63170  88.9761 311.6780 0014036 250.8815 109.0816 13.50960858 58347
QIANFAN-85              
1 63171U 25046N   26062.79563186  .00000207  00000+0  30157-3 0  9993
2 63171  88.9764 311.5502 0011430 253.4857 106.5038 13.51001751 58417
